{
  "type": "FeatureCollection",
  "features": [
    {
      "type": "Feature",
      "properties": {
        "norad_id": 35671,
        "name": "COSMOS 2251 DEB",
        "group": "cosmos-2251-debris",
        "lat": 32.936247704787455,
        "lon": 68.00486905963042,
        "alt_km": 757.1679732318207,
        "timestamp": "2025-12-24T11:33:00.415220+00:00",
        "meta_object_name": "COSMOS 2251 DEB",
        "meta_object_id": "1993-036APN",
        "meta_epoch": "2025-12-17T12:02:51.877248",
        "meta_mean_motion": 14.48356669,
        "meta_eccentricity": 0.00414327,
        "meta_inclination": 74.0178,
        "meta_ra_of_asc_node": 70.3857,
        "meta_arg_of_pericenter": 243.6268,
        "meta_mean_anomaly": 134.9759,
        "meta_ephemeris_type": 0,
        "meta_classification_type": "U",
        "meta_norad_cat_id": 35671,
        "meta_element_set_no": 999,
        "meta_rev_at_epoch": 86832,
        "meta_bstar": 0.00018080216,
        "meta_mean_motion_dot": 6.55e-06,
        "meta_mean_motion_ddot": 0,
        "tle_line1": "1 35671U 93036APN 25351.50198932  .00000655  00000+0  18080-3 0  9991",
        "tle_line2": "2 35671  74.0178  70.3857 0041432 243.6268 134.9759 14.48356669868323"
      },
      "geometry": {
        "type": "Point",
        "coordinates": [
          68.00486905963042,
          32.936247704787455
        ]
      }
    },
    {
      "type": "Feature",
      "properties": {
        "norad_id": 35674,
        "name": "COSMOS 2251 DEB",
        "group": "cosmos-2251-debris",
        "lat": 18.31862270650909,
        "lon": 108.90776471452129,
        "alt_km": 779.3564265372506,
        "timestamp": "2025-12-24T11:33:00.415231+00:00",
        "meta_object_name": "COSMOS 2251 DEB",
        "meta_object_id": "1993-036APR",
        "meta_epoch": "2025-12-22T02:40:52.097376",
        "meta_mean_motion": 14.54343457,
        "meta_eccentricity": 0.009624,
        "meta_inclination": 74.0609,
        "meta_ra_of_asc_node": 298.81,
        "meta_arg_of_pericenter": 341.455,
        "meta_mean_anomaly": 18.3112,
        "meta_ephemeris_type": 0,
        "meta_classification_type": "U",
        "meta_norad_cat_id": 35674,
        "meta_element_set_no": 999,
        "meta_rev_at_epoch": 86247,
        "meta_bstar": 0.0018064295,
        "meta_mean_motion_dot": 8.139e-05,
        "meta_mean_motion_ddot": 0,
        "tle_line1": "1 35674U 93036APR 25356.11171409  .00008139  00000+0  18064-2 0  9992",
        "tle_line2": "2 35674  74.0609 298.8100 0096240 341.4550  18.3112 14.54343457862477"
      },
      "geometry": {
        "type": "Point",
        "coordinates": [
          108.90776471452129,
          18.31862270650909
        ]
      }
    },
    {
      "type": "Feature",
      "properties": {
        "norad_id": 35701,
        "name": "COSMOS 2251 DEB",
        "group": "cosmos-2251-debris",
        "lat": -62.33619172299497,
        "lon": 135.8081498943754,
        "alt_km": 1061.5868871521361,
        "timestamp": "2025-12-24T11:33:00.415241+00:00",
        "meta_object_name": "COSMOS 2251 DEB",
        "meta_object_id": "1993-036APW",
        "meta_epoch": "2025-12-23T03:05:16.939392",
        "meta_mean_motion": 13.80906206,
        "meta_eccentricity": 0.0288749,
        "meta_inclination": 74.0066,
        "meta_ra_of_asc_node": 284.9129,
        "meta_arg_of_pericenter": 131.8115,
        "meta_mean_anomaly": 230.8064,
        "meta_ephemeris_type": 0,
        "meta_classification_type": "U",
        "meta_norad_cat_id": 35701,
        "meta_element_set_no": 999,
        "meta_rev_at_epoch": 62302,
        "meta_bstar": 0.0013474955,
        "meta_mean_motion_dot": 1.927e-05,
        "meta_mean_motion_ddot": 0,
        "tle_line1": "1 35701U 93036APW 25357.12866828  .00001927  00000+0  13475-2 0  9990",
        "tle_line2": "2 35701  74.0066 284.9129 0288749 131.8115 230.8064 13.80906206623025"
      },
      "geometry": {
        "type": "Point",
        "coordinates": [
          135.8081498943754,
          -62.33619172299497
        ]
      }
    },
    {
      "type": "Feature",
      "properties": {
        "norad_id": 35703,
        "name": "COSMOS 2251 DEB",
        "group": "cosmos-2251-debris",
        "lat": -26.87760111393007,
        "lon": -152.39885980305021,
        "alt_km": 625.8312244122935,
        "timestamp": "2025-12-24T11:33:00.415252+00:00",
        "meta_object_name": "COSMOS 2251 DEB",
        "meta_object_id": "1993-036APY",
        "meta_epoch": "2025-12-23T18:31:02.032320",
        "meta_mean_motion": 14.90473978,
        "meta_eccentricity": 0.00644211,
        "meta_inclination": 74.0416,
        "meta_ra_of_asc_node": 20.682,
        "meta_arg_of_pericenter": 86.9759,
        "meta_mean_anomaly": 273.8792,
        "meta_ephemeris_type": 0,
        "meta_classification_type": "U",
        "meta_norad_cat_id": 35703,
        "meta_element_set_no": 999,
        "meta_rev_at_epoch": 66780,
        "meta_bstar": 0.00060094719,
        "meta_mean_motion_dot": 6.067e-05,
        "meta_mean_motion_ddot": 0,
        "tle_line1": "1 35703U 93036APY 25357.77155130  .00006067  00000+0  60095-3 0  9991",
        "tle_line2": "2 35703  74.0416  20.6820 0064421  86.9759 273.8792 14.90473978667808"
      },
      "geometry": {
        "type": "Point",
        "coordinates": [
          -152.39885980305021,
          -26.87760111393007
        ]
      }
    },
    {
      "type": "Feature",
      "properties": {
        "norad_id": 35705,
        "name": "COSMOS 2251 DEB",
        "group": "cosmos-2251-debris",
        "lat": -48.128204430575074,
        "lon": 94.97893436279418,
        "alt_km": 666.4497466841403,
        "timestamp": "2025-12-24T11:33:00.415263+00:00",
        "meta_object_name": "COSMOS 2251 DEB",
        "meta_object_id": "1993-036AQA",
        "meta_epoch": "2025-12-21T00:37:19.012800",
        "meta_mean_motion": 14.72474593,
        "meta_eccentricity": 0.00333276,
        "meta_inclination": 74.2752,
        "meta_ra_of_asc_node": 119.9236,
        "meta_arg_of_pericenter": 64.9174,
        "meta_mean_anomaly": 295.5452,
        "meta_ephemeris_type": 0,
        "meta_classification_type": "U",
        "meta_norad_cat_id": 35705,
        "meta_element_set_no": 999,
        "meta_rev_at_epoch": 86048,
        "meta_bstar": 0.0022061245,
        "meta_mean_motion_dot": 0.00014123,
        "meta_mean_motion_ddot": 0,
        "tle_line1": "1 35705U 93036AQA 25355.02591450  .00014123  00000+0  22061-2 0  9990",
        "tle_line2": "2 35705  74.2752 119.9236 0033327  64.9174 295.5452 14.72474593860483"
      },
      "geometry": {
        "type": "Point",
        "coordinates": [
          94.97893436279418,
          -48.128204430575074
        ]
      }
    },
    {
      "type": "Feature",
      "properties": {
        "norad_id": 35706,
        "name": "COSMOS 2251 DEB",
        "group": "cosmos-2251-debris",
        "lat": 28.51420937969913,
        "lon": 52.446433638343606,
        "alt_km": 884.5536659450163,
        "timestamp": "2025-12-24T11:33:00.415274+00:00",
        "meta_object_name": "COSMOS 2251 DEB",
        "meta_object_id": "1993-036AQB",
        "meta_epoch": "2025-12-21T09:35:04.200288",
        "meta_mean_motion": 13.65940195,
        "meta_eccentricity": 0.03399329,
        "meta_inclination": 73.889,
        "meta_ra_of_asc_node": 48.5024,
        "meta_arg_of_pericenter": 96.6435,
        "meta_mean_anomaly": 267.3485,
        "meta_ephemeris_type": 0,
        "meta_classification_type": "U",
        "meta_norad_cat_id": 35706,
        "meta_element_set_no": 999,
        "meta_rev_at_epoch": 62180,
        "meta_bstar": 0.00062720687,
        "meta_mean_motion_dot": 7.46e-06,
        "meta_mean_motion_ddot": 0,
        "tle_line1": "1 35706U 93036AQB 25355.39935417  .00000746  00000+0  62721-3 0  9990",
        "tle_line2": "2 35706  73.8890  48.5024 0339932  96.6435 267.3485 13.65940195621808"
      },
      "geometry": {
        "type": "Point",
        "coordinates": [
          52.446433638343606,
          28.51420937969913
        ]
      }
    },
    {
      "type": "Feature",
      "properties": {
        "norad_id": 35711,
        "name": "COSMOS 2251 DEB",
        "group": "cosmos-2251-debris",
        "lat": -71.17172292968029,
        "lon": 140.90289368738402,
        "alt_km": 629.7625237853863,
        "timestamp": "2025-12-24T11:33:00.415285+00:00",
        "meta_object_name": "COSMOS 2251 DEB",
        "meta_object_id": "1993-036AQG",
        "meta_epoch": "2025-12-18T08:17:23.762688",
        "meta_mean_motion": 14.63815796,
        "meta_eccentricity": 0.00854507,
        "meta_inclination": 74.0458,
        "meta_ra_of_asc_node": 209.7036,
        "meta_arg_of_pericenter": 309.5008,
        "meta_mean_anomaly": 49.8625,
        "meta_ephemeris_type": 0,
        "meta_classification_type": "U",
        "meta_norad_cat_id": 35711,
        "meta_element_set_no": 999,
        "meta_rev_at_epoch": 87853,
        "meta_bstar": 0.00017154859,
        "meta_mean_motion_dot": 9.1e-06,
        "meta_mean_motion_ddot": 0,
        "tle_line1": "1 35711U 93036AQG 25352.34541392  .00000910  00000+0  17155-3 0  9997",
        "tle_line2": "2 35711  74.0458 209.7036 0085450 309.5008  49.8625 14.63815796878536"
      },
      "geometry": {
        "type": "Point",
        "coordinates": [
          140.90289368738402,
          -71.17172292968029
        ]
      }
    }
  ]
}